[{"OBJECT_NAME":"HULIANWANG DIGUI-65","OBJECT_ID":"2025-174H","EPOCH":"2026-03-05T03:30:01.475424","MEAN_MOTION":13.24422245,"ECCENTRICITY":0.0001224,"INCLINATION":86.4844,"RA_OF_ASC_NODE":287.0528,"ARG_OF_PERICENTER":87.8319,"MEAN_ANOMALY":272.2956,"EPHEMERIS_TYPE":0,"CLASSIFICATION_TYPE":"U","NORAD_CAT_ID":65171,"ELEMENT_SET_NO":999,"REV_AT_EPOCH":2701,"BSTAR":6.3148e-5,"MEAN_MOTION_DOT":4.2e-7,"MEAN_MOTION_DDOT":0},{"OBJECT_NAME":"HULIANWANG DIGUI-66","OBJECT_ID":"2025-174J","EPOCH":"2026-03-05T03:19:10.898976","MEAN_MOTION":13.2442192,"ECCENTRICITY":0.0001266,"INCLINATION":86.488,"RA_OF_ASC_NODE":287.1214,"ARG_OF_PERICENTER":90.0544,"MEAN_ANOMALY":270.0735,"EPHEMERIS_TYPE":0,"CLASSIFICATION_TYPE":"U","NORAD_CAT_ID":65172,"ELEMENT_SET_NO":999,"REV_AT_EPOCH":2701,"BSTAR":7.759e-5,"MEAN_MOTION_DOT":4.8e-7,"MEAN_MOTION_DDOT":0},{"OBJECT_NAME":"HULIANWANG DIGUI-67","OBJECT_ID":"2025-174K","EPOCH":"2026-03-05T03:40:59.058048","MEAN_MOTION":13.24421513,"ECCENTRICITY":0.0001258,"INCLINATION":86.4891,"RA_OF_ASC_NODE":287.1499,"ARG_OF_PERICENTER":88.3092,"MEAN_ANOMALY":271.8186,"EPHEMERIS_TYPE":0,"CLASSIFICATION_TYPE":"U","NORAD_CAT_ID":65173,"ELEMENT_SET_NO":999,"REV_AT_EPOCH":2698,"BSTAR":8.9095e-5,"MEAN_MOTION_DOT":5.3e-7,"MEAN_MOTION_DDOT":0},{"OBJECT_NAME":"HULIANWANG DIGUI-68","OBJECT_ID":"2025-178A","EPOCH":"2026-03-05T04:13:25.188672","MEAN_MOTION":13.24423831,"ECCENTRICITY":0.0002031,"INCLINATION":86.494,"RA_OF_ASC_NODE":48.6195,"ARG_OF_PERICENTER":80.0109,"MEAN_ANOMALY":280.1254,"EPHEMERIS_TYPE":0,"CLASSIFICATION_TYPE":"U","NORAD_CAT_ID":65228,"ELEMENT_SET_NO":999,"REV_AT_EPOCH":2654,"BSTAR":1.8263e-5,"MEAN_MOTION_DOT":2.2e-7,"MEAN_MOTION_DDOT":0},{"OBJECT_NAME":"HULIANWANG DIGUI-69","OBJECT_ID":"2025-178B","EPOCH":"2026-03-05T04:02:59.225856","MEAN_MOTION":13.24417692,"ECCENTRICITY":0.0001966,"INCLINATION":86.4961,"RA_OF_ASC_NODE":48.6568,"ARG_OF_PERICENTER":81.31,"MEAN_ANOMALY":278.8257,"EPHEMERIS_TYPE":0,"CLASSIFICATION_TYPE":"U","NORAD_CAT_ID":65229,"ELEMENT_SET_NO":999,"REV_AT_EPOCH":2654,"BSTAR":2.2794e-5,"MEAN_MOTION_DOT":2.4e-7,"MEAN_MOTION_DDOT":0},{"OBJECT_NAME":"HULIANWANG DIGUI-70","OBJECT_ID":"2025-178C","EPOCH":"2026-03-05T03:52:02.724960","MEAN_MOTION":13.24418636,"ECCENTRICITY":0.000207,"INCLINATION":86.49,"RA_OF_ASC_NODE":48.5284,"ARG_OF_PERICENTER":80.0154,"MEAN_ANOMALY":280.1213,"EPHEMERIS_TYPE":0,"CLASSIFICATION_TYPE":"U","NORAD_CAT_ID":65230,"ELEMENT_SET_NO":999,"REV_AT_EPOCH":2654,"BSTAR":2.2867e-5,"MEAN_MOTION_DOT":2.4e-7,"MEAN_MOTION_DDOT":0},{"OBJECT_NAME":"HULIANWANG DIGUI-71","OBJECT_ID":"2025-178D","EPOCH":"2026-03-05T03:41:07.844064","MEAN_MOTION":13.24419519,"ECCENTRICITY":0.0002011,"INCLINATION":86.4958,"RA_OF_ASC_NODE":48.6451,"ARG_OF_PERICENTER":81.1531,"MEAN_ANOMALY":278.9831,"EPHEMERIS_TYPE":0,"CLASSIFICATION_TYPE":"U","NORAD_CAT_ID":65231,"ELEMENT_SET_NO":999,"REV_AT_EPOCH":2654,"BSTAR":2.6252e-5,"MEAN_MOTION_DOT":2.6e-7,"MEAN_MOTION_DDOT":0},{"OBJECT_NAME":"HULIANWANG DIGUI-72","OBJECT_ID":"2025-178E","EPOCH":"2026-03-05T03:30:11.452896","MEAN_MOTION":13.24419985,"ECCENTRICITY":0.0002021,"INCLINATION":86.4942,"RA_OF_ASC_NODE":48.6057,"ARG_OF_PERICENTER":82.0208,"MEAN_ANOMALY":278.1156,"EPHEMERIS_TYPE":0,"CLASSIFICATION_TYPE":"U","NORAD_CAT_ID":65232,"ELEMENT_SET_NO":999,"REV_AT_EPOCH":2654,"BSTAR":4.9322e-5,"MEAN_MOTION_DOT":3.6e-7,"MEAN_MOTION_DDOT":0},{"OBJECT_NAME":"HULIANWANG DIGUI-73","OBJECT_ID":"2025-187A","EPOCH":"2026-03-05T03:56:12.610176","MEAN_MOTION":13.29342434,"ECCENTRICITY":0.0001042,"INCLINATION":50.0037,"RA_OF_ASC_NODE":218.9515,"ARG_OF_PERICENTER":138.6427,"MEAN_ANOMALY":221.4525,"EPHEMERIS_TYPE":0,"CLASSIFICATION_TYPE":"U","NORAD_CAT_ID":65305,"ELEMENT_SET_NO":999,"REV_AT_EPOCH":2586,"BSTAR":4.0237e-5,"MEAN_MOTION_DOT":-1.05e-6,"MEAN_MOTION_DDOT":0},{"OBJECT_NAME":"HULIANWANG DIGUI-74","OBJECT_ID":"2025-187B","EPOCH":"2026-03-04T23:55:36.754752","MEAN_MOTION":13.29342985,"ECCENTRICITY":0.0001043,"INCLINATION":50.0079,"RA_OF_ASC_NODE":219.47,"ARG_OF_PERICENTER":138.2291,"MEAN_ANOMALY":221.8661,"EPHEMERIS_TYPE":0,"CLASSIFICATION_TYPE":"U","NORAD_CAT_ID":65306,"ELEMENT_SET_NO":999,"REV_AT_EPOCH":2584,"BSTAR":6.8386e-5,"MEAN_MOTION_DOT":-9.2e-7,"MEAN_MOTION_DDOT":0},{"OBJECT_NAME":"HULIANWANG DIGUI-75","OBJECT_ID":"2025-187C","EPOCH":"2026-03-04T23:31:38.620704","MEAN_MOTION":13.2934198,"ECCENTRICITY":0.0001044,"INCLINATION":50.0072,"RA_OF_ASC_NODE":219.3715,"ARG_OF_PERICENTER":136.4764,"MEAN_ANOMALY":223.6191,"EPHEMERIS_TYPE":0,"CLASSIFICATION_TYPE":"U","NORAD_CAT_ID":65307,"ELEMENT_SET_NO":999,"REV_AT_EPOCH":2584,"BSTAR":5.6875e-5,"MEAN_MOTION_DOT":-9.8e-7,"MEAN_MOTION_DDOT":0},{"OBJECT_NAME":"HULIANWANG DIGUI-76","OBJECT_ID":"2025-187D","EPOCH":"2026-03-05T02:44:22.383744","MEAN_MOTION":13.29339258,"ECCENTRICITY":0.0001039,"INCLINATION":49.9996,"RA_OF_ASC_NODE":219.2853,"ARG_OF_PERICENTER":134.4887,"MEAN_ANOMALY":225.6071,"EPHEMERIS_TYPE":0,"CLASSIFICATION_TYPE":"U","NORAD_CAT_ID":65308,"ELEMENT_SET_NO":999,"REV_AT_EPOCH":2585,"BSTAR":5.2517e-5,"MEAN_MOTION_DOT":-1.0e-6,"MEAN_MOTION_DDOT":0},{"OBJECT_NAME":"HULIANWANG DIGUI-77","OBJECT_ID":"2025-187E","EPOCH":"2026-03-05T04:20:23.394912","MEAN_MOTION":13.29341154,"ECCENTRICITY":0.0001072,"INCLINATION":50.003,"RA_OF_ASC_NODE":219.0254,"ARG_OF_PERICENTER":135.7369,"MEAN_ANOMALY":224.3589,"EPHEMERIS_TYPE":0,"CLASSIFICATION_TYPE":"U","NORAD_CAT_ID":65309,"ELEMENT_SET_NO":999,"REV_AT_EPOCH":2586,"BSTAR":4.6934e-5,"MEAN_MOTION_DOT":-1.02e-6,"MEAN_MOTION_DDOT":0},{"OBJECT_NAME":"HULIANWANG DIGUI-78","OBJECT_ID":"2025-187F","EPOCH":"2026-03-05T03:20:14.590464","MEAN_MOTION":13.29341678,"ECCENTRICITY":0.0001022,"INCLINATION":50.0096,"RA_OF_ASC_NODE":218.9138,"ARG_OF_PERICENTER":138.6813,"MEAN_ANOMALY":221.4136,"EPHEMERIS_TYPE":0,"CLASSIFICATION_TYPE":"U","NORAD_CAT_ID":65310,"ELEMENT_SET_NO":999,"REV_AT_EPOCH":2586,"BSTAR":4.4886e-5,"MEAN_MOTION_DOT":-1.03e-6,"MEAN_MOTION_DDOT":0},{"OBJECT_NAME":"HULIANWANG DIGUI-79","OBJECT_ID":"2025-187G","EPOCH":"2026-03-05T02:55:57.863136","MEAN_MOTION":13.2934308,"ECCENTRICITY":0.0001034,"INCLINATION":50.0025,"RA_OF_ASC_NODE":219.373,"ARG_OF_PERICENTER":135.2942,"MEAN_ANOMALY":224.8014,"EPHEMERIS_TYPE":0,"CLASSIFICATION_TYPE":"U","NORAD_CAT_ID":65311,"ELEMENT_SET_NO":999,"REV_AT_EPOCH":2585,"BSTAR":4.1948e-5,"MEAN_MOTION_DOT":-1.05e-6,"MEAN_MOTION_DDOT":0},{"OBJECT_NAME":"HULIANWANG DIGUI-80","OBJECT_ID":"2025-187H","EPOCH":"2026-03-05T04:08:19.071744","MEAN_MOTION":13.29341238,"ECCENTRICITY":0.0001057,"INCLINATION":50.0016,"RA_OF_ASC_NODE":218.9604,"ARG_OF_PERICENTER":135.3928,"MEAN_ANOMALY":224.7029,"EPHEMERIS_TYPE":0,"CLASSIFICATION_TYPE":"U","NORAD_CAT_ID":65312,"ELEMENT_SET_NO":999,"REV_AT_EPOCH":2586,"BSTAR":6.743e-5,"MEAN_MOTION_DOT":-9.3e-7,"MEAN_MOTION_DDOT":0}]
