HULIANWANG DIGUI-65     
1 65171U 25174H   26064.14585041  .00000042  00000+0  63148-4 0  9996
2 65171  86.4844 287.0528 0001224  87.8319 272.2956 13.24422245 27015
HULIANWANG DIGUI-66     
1 65172U 25174J   26064.13832059  .00000048  00000+0  77590-4 0  9992
2 65172  86.4880 287.1214 0001266  90.0544 270.0735 13.24421920 27011
HULIANWANG DIGUI-67     
1 65173U 25174K   26064.15346132  .00000053  00000+0  89095-4 0  9996
2 65173  86.4891 287.1499 0001258  88.3092 271.8186 13.24421513 26980
HULIANWANG DIGUI-68     
1 65228U 25178A   26064.17598598  .00000022  00000+0  18263-4 0  9993
2 65228  86.4940  48.6195 0002031  80.0109 280.1254 13.24423831 26543
HULIANWANG DIGUI-69     
1 65229U 25178B   26064.16874104  .00000024  00000+0  22794-4 0  9999
2 65229  86.4961  48.6568 0001966  81.3100 278.8257 13.24417692 26547
HULIANWANG DIGUI-70     
1 65230U 25178C   26064.16114265  .00000024  00000+0  22867-4 0  9997
2 65230  86.4900  48.5284 0002070  80.0154 280.1213 13.24418636 26545
HULIANWANG DIGUI-71     
1 65231U 25178D   26064.15356301  .00000026  00000+0  26252-4 0  9990
2 65231  86.4958  48.6451 0002011  81.1531 278.9831 13.24419519 26544
HULIANWANG DIGUI-72     
1 65232U 25178E   26064.14596589  .00000036  00000+0  49322-4 0  9998
2 65232  86.4942  48.6057 0002021  82.0208 278.1156 13.24419985 26541
HULIANWANG DIGUI-73     
1 65305U 25187A   26064.16403484 -.00000105  00000+0  40237-4 0  9996
2 65305  50.0037 218.9515 0001042 138.6427 221.4525 13.29342434 25862
HULIANWANG DIGUI-74     
1 65306U 25187B   26063.99695318 -.00000092  00000+0  68386-4 0  9996
2 65306  50.0079 219.4700 0001043 138.2291 221.8661 13.29342985 25841
HULIANWANG DIGUI-75     
1 65307U 25187C   26063.98030811 -.00000098  00000+0  56875-4 0  9993
2 65307  50.0072 219.3715 0001044 136.4764 223.6191 13.29341980 25848
HULIANWANG DIGUI-76     
1 65308U 25187D   26064.11414796 -.00000100  00000+0  52517-4 0  9991
2 65308  49.9996 219.2853 0001039 134.4887 225.6071 13.29339258 25856
HULIANWANG DIGUI-77     
1 65309U 25187E   26064.18082633 -.00000102  00000+0  46934-4 0  9998
2 65309  50.0030 219.0254 0001072 135.7369 224.3589 13.29341154 25867
HULIANWANG DIGUI-78     
1 65310U 25187F   26064.13905776 -.00000103  00000+0  44886-4 0  9992
2 65310  50.0096 218.9138 0001022 138.6813 221.4136 13.29341678 25868
HULIANWANG DIGUI-79     
1 65311U 25187G   26064.12219749 -.00000105  00000+0  41948-4 0  9998
2 65311  50.0025 219.3730 0001034 135.2942 224.8014 13.29343080 25853
HULIANWANG DIGUI-80     
1 65312U 25187H   26064.17244296 -.00000093  00000+0  67430-4 0  9999
2 65312  50.0016 218.9604 0001057 135.3928 224.7029 13.29341238 25868
